NORAD_CAT_ID,OBJECT_NAME,OBJECT_TYPE,EPOCH,MEAN_MOTION,ECCENTRICITY,INCLINATION,RA_OF_ASC_NODE,ARG_OF_PERICENTER,MEAN_ANOMALY,BSTAR,MEAN_MOTION_DOT,MEAN_MOTION_DDOT,TLE_LINE0,TLE_LINE1,TLE_LINE2,SEMIMAJOR_AXIS,PERIOD,APOGEE,PERIGEE,DECAYED
52836.0,STARLINK-4043,PAYLOAD,2022-09-10 22:00:00,15.08853491,0.0001706,53.218,1.2909,52.1476,18.2187,-0.0034431999999999,-0.00054691,0.0,0 STARLINK-4043,1 52836U 22062G   22253.91667824 -.00054691  00000-0 -34432-2 0  9998,2 52836  53.2180   1.2909 0001706  52.1476  18.2187 15.08853491  1300,6917.839,95.437,540.884,538.524,0.0
52836.0,STARLINK-4043,PAYLOAD,2022-09-11 06:00:00,15.08808832,0.0001601,53.2183,359.7933,57.8609,24.0954,0.0030949,0.0004927,0.0,0 STARLINK-4043,1 52836U 22062G   22254.25001157  .00049270  00000-0  30949-2 0  9991,2 52836  53.2183 359.7933 0001601  57.8609  24.0954 15.08808832 13236,6917.976,95.44,540.948,538.7330000000002,0.0
52836.0,STARLINK-4043,PAYLOAD,2022-09-11 14:00:01,15.08860581,0.0001742,53.2179,358.2952,53.6527,39.8806,-0.0035518999999999,-0.00056406,0.0,0 STARLINK-4043,1 52836U 22062G   22254.58334491 -.00056406  00000-0 -35519-2 0  9996,2 52836  53.2179 358.2952 0001742  53.6527  39.8806 15.08860581  1309,6917.816999999999,95.436,540.888,538.477,0.0
52836.0,STARLINK-4043,PAYLOAD,2022-09-11 22:00:00,15.08781366,0.0001568,53.2173,356.7952,58.2328,46.9087,0.004692,0.0007506,0.0,0 STARLINK-4043,1 52836U 22062G   22254.91667824  .00075060  00000-0  46920-2 0  9995,2 52836  53.2173 356.7952 0001568  58.2328  46.9087 15.08781366  1305,6918.06,95.441,541.009,538.84,0.0
52836.0,STARLINK-4043,PAYLOAD,2022-09-12 12:00:00,15.08852498,0.0001708,53.2186,354.1839,51.9191,343.5064,-0.0026583,-0.00042361,0.0,0 STARLINK-4043,1 52836U 22062G   22255.50001157 -.00042361  00000-0 -26583-2 0  9995,2 52836  53.2186 354.1839 0001708  51.9191 343.5064 15.08852498 13421,6917.842,95.437,540.889,538.526,0.0
52836.0,STARLINK-4043,PAYLOAD,2022-09-12 14:00:01,15.08830904,0.0001766,53.2186,353.8102,50.9042,77.4262,-0.00029417,-4.966e-05,0.0,0 STARLINK-4043,1 52836U 22062G   22255.58334491 -.00004966  00000-0 -29417-3 0  9992,2 52836  53.2186 353.8102 0001766  50.9042  77.4262 15.08830904  1303,6917.908,95.438,540.995,538.5509999999998,0.0
52836.0,STARLINK-4043,PAYLOAD,2022-09-12 22:00:00,15.08853988,0.0001719,53.2185,352.3132,52.0619,87.8487,-0.0011877,-0.00019148,0.0,0 STARLINK-4043,1 52836U 22062G   22255.91667824 -.00019148  00000-0 -11877-2 0  9996,2 52836  53.2185 352.3132 0001719  52.0619  87.8487 15.08853988 13483,6917.8380000000025,95.437,540.8919999999998,538.513,0.0
52836.0,STARLINK-4043,PAYLOAD,2022-09-13 14:00:01,15.08843302,0.0001851999999999,53.2185,349.3214,52.4321,110.6825,-0.0012814999999999,-0.00020627,0.0,0 STARLINK-4043,1 52836U 22062G   22256.58334491 -.00020627  00000-0 -12815-2 0  9998,2 52836  53.2185 349.3214 0001852  52.4321 110.6825 15.08843302  1300,6917.87,95.437,541.016,538.4540000000002,0.0
52836.0,STARLINK-4043,PAYLOAD,2022-09-13 22:00:00,15.08834129,0.0001699,53.2183,347.8239,51.805,122.8966,-0.0014412,-0.00023148,0.0,0 STARLINK-4043,1 52836U 22062G   22256.91667824 -.00023148  00000-0 -14412-2 0  9990,2 52836  53.2183 347.8239 0001699  51.8050 122.8966 15.08834129  1307,6917.898,95.438,540.939,538.5880000000002,0.0
52836.0,STARLINK-4043,PAYLOAD,2022-09-14 06:00:00,15.08826787,0.0001588,53.2184,346.3271,58.4745,127.8046,0.0017529,0.00027709,0.0,0 STARLINK-4043,1 52836U 22062G   22257.25001157  .00027709  00000-0  17529-2 0  9996,2 52836  53.2184 346.3271 0001588  58.4745 127.8046 15.08826787 13688,6917.920999999999,95.438,540.884,538.687,0.0
52836.0,STARLINK-4043,PAYLOAD,2022-09-14 14:00:01,15.08844554,0.0001715,53.2181,344.8326,50.3864,147.4857,-0.00073204,-0.00011921,0.0,0 STARLINK-4043,1 52836U 22062G   22257.58334491 -.00011921  00000-0 -73204-3 0  9996,2 52836  53.2181 344.8326 0001715  50.3864 147.4857 15.08844554  1300,6917.866,95.437,540.918,538.545,0.0
52836.0,STARLINK-4043,PAYLOAD,2022-09-14 22:00:00,15.08846543,0.0001565999999999,53.2177,343.3352,49.6006,159.8659,-0.0016945999999999,-0.00027161,0.0,0 STARLINK-4043,1 52836U 22062G   22257.91667824 -.00027161  00000-0 -16946-2 0  9994,2 52836  53.2177 343.3352 0001566  49.6006 159.8659 15.08846543 13783,6917.86,95.437,540.809,538.6419999999998,0.0
52836.0,STARLINK-4043,PAYLOAD,2022-09-15 14:00:01,15.08853413,0.0001712,53.2175,340.3436,49.3994,183.2632,-1.9064e-05,-5.92e-06,0.0,0 STARLINK-4043,1 52836U 22062G   22258.58334491 -.00000592  00000-0 -19064-4 0  9994,2 52836  53.2175 340.3436 0001712  49.3994 183.2632 15.08853413  1308,6917.839,95.437,540.889,538.52,0.0
52836.0,STARLINK-4043,PAYLOAD,2022-09-15 22:00:00,15.0886593,0.0001628,53.2172,338.8459,51.0386,193.2356,-0.0044622,-0.00070658,0.0,0 STARLINK-4043,1 52836U 22062G   22258.91667824 -.00070658  00000-0 -44622-2 0  9996,2 52836  53.2172 338.8459 0001628  51.0386 193.2356 15.08865930  1304,6917.801,95.436,540.7919999999998,538.54,0.0
52836.0,STARLINK-4043,PAYLOAD,2022-09-16 02:00:01,15.08792432,0.0001655,53.2171,338.0909,52.3899,17.695999999999994,-0.00080068,-0.00012992,0.0,0 STARLINK-4043,1 52836U 22062G   22259.08334491 -.00012992  00000-0 -80068-3 0  9998,2 52836  53.2171 338.0909 0001655  52.3899  17.6960 15.08792432 13969,6918.026,95.441,541.036,538.746,0.0
52836.0,STARLINK-4043,PAYLOAD,2022-09-16 08:00:01,15.08855192,0.0001692,53.2172,336.9755,56.8793,291.8572,-0.00086829,-0.00014086,0.0,0 STARLINK-4043,1 52836U 22062G   22259.33334491 -.00014086  00000-0 -86829-3 0  9993,2 52836  53.2172 336.9755 0001692  56.8793 291.8572 15.08855192 14003,6917.834,95.437,540.869,538.528,0.0
52836.0,STARLINK-4043,PAYLOAD,2022-09-16 14:00:01,15.08845037,0.0001809,53.2171,335.8545,50.8425,216.6016,-0.00059095,-9.682e-05,0.0,0 STARLINK-4043,1 52836U 22062G   22259.58334491 -.00009682  00000-0 -59095-3 0  9991,2 52836  53.2171 335.8545 0001809  50.8425 216.6016 15.08845037  1307,6917.865,95.437,540.981,538.479,0.0
52836.0,STARLINK-4043,PAYLOAD,2022-09-16 22:00:00,15.08842375,0.0001636999999999,53.217,334.3567,49.9564,229.0865,-0.0015255,-0.00024486,0.0,0 STARLINK-4043,1 52836U 22062G   22259.91667824 -.00024486  00000-0 -15255-2 0  9995,2 52836  53.2170 334.3567 0001637  49.9564 229.0865 15.08842375  1308,6917.873000000001,95.437,540.871,538.606,0.0
52836.0,STARLINK-4043,PAYLOAD,2022-09-17 14:00:01,15.08833339,0.0001774,53.2171,331.3653,47.0048,255.2147,-0.00052249,-8.592e-05,0.0,0 STARLINK-4043,1 52836U 22062G   22260.58334491 -.00008592  00000-0 -52249-3 0  9996,2 52836  53.2171 331.3653 0001774  47.0048 255.2147 15.08833339  1304,6917.901,95.438,540.993,538.539,0.0
52836.0,STARLINK-4043,PAYLOAD,2022-09-17 22:00:00,15.0883125,0.0001624,53.2171,329.8674,46.9936,266.8139,-0.00071365,-0.00011625,0.0,0 STARLINK-4043,1 52836U 22062G   22260.91667824 -.00011625  00000-0 -71365-3 0  9993,2 52836  53.2171 329.8674 0001624  46.9936 266.8139 15.08831250  1306,6917.906999999997,95.438,540.896,538.649,0.0
52836.0,STARLINK-4043,PAYLOAD,2022-09-18 14:00:01,15.08831614,0.0001802,53.2174,326.876,44.2148,292.8308,0.001238,0.00019465,0.0,0 STARLINK-4043,1 52836U 22062G   22261.58335648  .00019465  00000-0  12380-2 0  9992,2 52836  53.2174 326.8760 0001802  44.2148 292.8308 15.08831614  1307,6917.906,95.438,541.018,538.524,0.0
52836.0,STARLINK-4043,PAYLOAD,2022-09-19 00:00:00,15.08806656,0.0001730999999999,53.2176,325.0004,50.5432,30.9295,0.0024259,0.00038496,0.0,0 STARLINK-4043,1 52836U 22062G   22262.00001157  .00038496  00000-0  24259-2 0  9998,2 52836  53.2176 325.0004 0001731  50.5432  30.9295 15.08806656  1302,6917.982,95.44,541.045,538.65,0.0
52836.0,STARLINK-4043,PAYLOAD,2022-09-19 06:00:02,15.08845372,0.000178,53.2175,323.8753,51.6077,308.6008,-0.002121,-0.00033891,0.0,0 STARLINK-4043,1 52836U 22062G   22262.25002315 -.00033891  00000-0 -21210-2 0  9992,2 52836  53.2175 323.8753 0001780  51.6077 308.6008 15.08845372 14443,6917.864000000001,95.437,540.96,538.498,0.0
52836.0,STARLINK-4043,PAYLOAD,2022-09-19 14:00:01,15.08822118,0.000199,53.2178,322.3871,47.441,324.3061,0.0030621,0.00048759,0.0,0 STARLINK-4043,1 52836U 22062G   22262.58334491  .00048759  00000-0  30621-2 0  9994,2 52836  53.2178 322.3871 0001990  47.4410 324.3061 15.08822118  1306,6917.935,95.439,541.177,538.423,0.0
52836.0,STARLINK-4043,PAYLOAD,2022-09-19 22:00:00,15.08859138,0.0001813,53.2179,320.8892,49.6968,333.645,-0.0015062,-0.00024192,0.0,0 STARLINK-4043,1 52836U 22062G   22262.91667824 -.00024192  00000-0 -15062-2 0  9999,2 52836  53.2179 320.8892 0001813  49.6968 333.6450 15.08859138  1306,6917.821999999999,95.436,540.941,538.433,0.0
52836.0,STARLINK-4043,PAYLOAD,2022-09-20 06:00:00,15.08864689,0.0001823,53.2178,319.3864,50.278,344.6587,-0.0061852,-0.00097464,0.0,0 STARLINK-4043,1 52836U 22062G   22263.25001157 -.00097464  00000-0 -61852-2 0  9998,2 52836  53.2178 319.3864 0001823  50.2780 344.6587 15.08864689 14593,6917.805,95.436,540.931,538.409,0.0
52836.0,STARLINK-4043,PAYLOAD,2022-09-20 14:00:01,15.08832236,0.0001891,53.218,317.8982,43.3424,3.1862,0.00049482,7.594e-05,0.0,0 STARLINK-4043,1 52836U 22062G   22263.58334491  .00007594  00000-0  49482-3 0  9993,2 52836  53.2180 317.8982 0001891  43.3424   3.1862 15.08832236  1304,6917.904,95.438,541.077,538.461,0.0
52836.0,STARLINK-4043,PAYLOAD,2022-09-20 22:00:01,15.0881503,0.0001666999999999,53.218,316.4001,45.7772,12.4091,0.00085092,0.00013271,0.0,0 STARLINK-4043,1 52836U 22062G   22263.91668981  .00013271  00000-0  85092-3 0  9990,2 52836  53.2180 316.4001 0001667  45.7772  12.4091 15.08815030  1304,6917.956999999999,95.439,540.975,538.668,0.0
52836.0,STARLINK-4043,PAYLOAD,2022-09-21 14:00:01,15.08812145,0.0001838,53.2177,313.4094,41.923,39.3607,0.0031756,0.00050576,0.0,0 STARLINK-4043,1 52836U 22062G   22264.58334491  .00050576  00000-0  31756-2 0  9996,2 52836  53.2177 313.4094 0001838  41.9230  39.3607 15.08812145 14798,6917.965999999999,95.439,541.102,538.559,0.0
